EUTELSAT 21B            
1 38992U 12062B   25278.49965321  .00000132  00000+0  00000+0 0  9999
2 38992   0.0727  12.9473 0002898 189.2804  13.6722  1.00273803 47279
EUTELSAT 70B            
1 39020U 12069A   25278.50953323 -.00000042  00000+0  00000+0 0  9991
2 39020   0.0658   0.6572 0004119 195.8420  71.8744  1.00271363 46957
EUTELSAT 117 WEST A     
1 39122U 13012A   25278.49423766 -.00000011  00000+0  00000+0 0  9990
2 39122   0.0472  53.3201 0002690 140.4211 241.8150  1.00271519 45877
EUTELSAT 7B             
1 39163U 13022A   25278.35418596  .00000050  00000+0  00000+0 0  9998
2 39163   0.0711  15.2258 0001075 302.3411 191.2384  1.00272848 45406
EXPRESS-AT1             
1 39612U 14010A   25278.50658656  .00000080  00000+0  00000+0 0  9998
2 39612   0.0031 185.1988 0000455 299.9092 127.7333  1.00273296 42261
EXPRESS-AT2             
1 39613U 14010B   25278.47405909 -.00000281  00000+0  00000+0 0  9990
2 39613   0.0171 250.7079 0000428 135.0431 299.1731  1.00259380 41942
EUTELSAT 3B             
1 39773U 14030A   25278.35340596  .00000021  00000+0  00000+0 0  9997
2 39773   0.0652   1.2432 0004517 188.2203 315.1517  1.00271141 41518
EUTELSAT 115 WEST B     
1 40425U 15010B   25278.30157787 -.00000024  00000+0  00000+0 0  9999
2 40425   0.0241  42.3625 0000265  55.0511 270.4935  1.00271349 38835
